{"type": "FeatureCollection", "features": [ {"type": "Feature", "properties": {"norad_id": 66490, "name": "STARLINK-35693", "group": "last-30-days", "lat": 13.000423464147138, "lon": -27.929272790514485, "alt_km": 380.7722622334395, "timestamp": "2025-12-05T16:54:13.485757+00:00", "meta": {"OBJECT_NAME": "STARLINK-35693", "OBJECT_ID": "2025-263F", "EPOCH": "2025-12-05T06:00:02.000160", "MEAN_MOTION": 15.63882531, "ECCENTRICITY": 0.00014564, "INCLINATION": 42.9994, "RA_OF_ASC_NODE": 169.1234, "ARG_OF_PERICENTER": 272.4534, "MEAN_ANOMALY": 209.1288, "EPHEMERIS_TYPE": 0, "CLASSIFICATION_TYPE": "U", "NORAD_CAT_ID": 66490, "ELEMENT_SET_NO": 999, "REV_AT_EPOCH": 443, "BSTAR": -0.024383375, "MEAN_MOTION_DOT": -0.02062472, "MEAN_MOTION_DDOT": 0}, "tle": {"line1": "1 66490U 25263F   25339.25002315 -.02062472  00000+0 -24383-1 0  9998", "line2": "2 66490  42.9994 169.1234 0001456 272.4534 209.1288 15.63882531  4436"}}, "geometry": {"type": "Point", "coordinates": [-27.929272790514485, 13.000423464147138]}}, {"type": "Feature", "properties": {"norad_id": 66491, "name": "STARLINK-35663", "group": "last-30-days", "lat": 10.451532901411168, "lon": -25.01159160213821, "alt_km": 381.03766058540896, "timestamp": "2025-12-05T16:54:13.485766+00:00", "meta": {"OBJECT_NAME": "STARLINK-35663", "OBJECT_ID": "2025-263G", "EPOCH": "2025-12-05T06:00:02.000160", "MEAN_MOTION": 15.63880408, "ECCENTRICITY": 0.00014242, "INCLINATION": 42.9988, "RA_OF_ASC_NODE": 169.1136, "ARG_OF_PERICENTER": 271.6372, "MEAN_ANOMALY": 213.777, "EPHEMERIS_TYPE": 0, "CLASSIFICATION_TYPE": "U", "NORAD_CAT_ID": 66491, "ELEMENT_SET_NO": 999, "REV_AT_EPOCH": 443, "BSTAR": -0.024308704, "MEAN_MOTION_DOT": -0.0205678, "MEAN_MOTION_DDOT": 0}, "tle": {"line1": "1 66491U 25263G   25339.25002315 -.02056780  00000+0 -24309-1 0  9992", "line2": "2 66491  42.9988 169.1136 0001424 271.6372 213.7770 15.63880408  4435"}}, "geometry": {"type": "Point", "coordinates": [-25.01159160213821, 10.451532901411168]}}, {"type": "Feature", "properties": {"norad_id": 66492, "name": "STARLINK-35673", "group": "last-30-days", "lat": 9.16728619775921, "lon": -23.5719664934215, "alt_km": 381.22009856298064, "timestamp": "2025-12-05T16:54:13.485774+00:00", "meta": {"OBJECT_NAME": "STARLINK-35673", "OBJECT_ID": "2025-263H", "EPOCH": "2025-12-05T06:00:02.000160", "MEAN_MOTION": 15.63880799, "ECCENTRICITY": 0.00014874, "INCLINATION": 42.999, "RA_OF_ASC_NODE": 169.1085, "ARG_OF_PERICENTER": 272.0418, "MEAN_ANOMALY": 215.2915, "EPHEMERIS_TYPE": 0, "CLASSIFICATION_TYPE": "U", "NORAD_CAT_ID": 66492, "ELEMENT_SET_NO": 999, "REV_AT_EPOCH": 443, "BSTAR": -0.024345465, "MEAN_MOTION_DOT": -0.02059575, "MEAN_MOTION_DDOT": 0}, "tle": {"line1": "1 66492U 25263H   25339.25002315 -.02059575  00000+0 -24345-1 0  9998", "line2": "2 66492  42.9990 169.1085 0001487 272.0418 215.2915 15.63880799  4438"}}, "geometry": {"type": "Point", "coordinates": [-23.5719664934215, 9.16728619775921]}}, {"type": "Feature", "properties": {"norad_id": 66493, "name": "STARLINK-35597", "group": "last-30-days", "lat": 7.877045428821953, "lon": -22.142190835023527, "alt_km": 381.3334472683764, "timestamp": "2025-12-05T16:54:13.485784+00:00", "meta": {"OBJECT_NAME": "STARLINK-35597", "OBJECT_ID": "2025-263J", "EPOCH": "2025-12-05T06:00:02.000160", "MEAN_MOTION": 15.6387597, "ECCENTRICITY": 0.00014505, "INCLINATION": 42.9991, "RA_OF_ASC_NODE": 169.1037, "ARG_OF_PERICENTER": 271.0423, "MEAN_ANOMALY": 218.2114, "EPHEMERIS_TYPE": 0, "CLASSIFICATION_TYPE": "U", "NORAD_CAT_ID": 66493, "ELEMENT_SET_NO": 999, "REV_AT_EPOCH": 443, "BSTAR": -0.024287216, "MEAN_MOTION_DOT": -0.02054895, "MEAN_MOTION_DDOT": 0}, "tle": {"line1": "1 66493U 25263J   25339.25002315 -.02054895  00000+0 -24287-1 0  9994", "line2": "2 66493  42.9991 169.1037 0001450 271.0423 218.2114 15.63875970  4431"}}, "geometry": {"type": "Point", "coordinates": [-22.142190835023527, 7.877045428821953]}}, {"type": "Feature", "properties": {"norad_id": 66494, "name": "STARLINK-35689", "group": "last-30-days", "lat": 11.729885305694884, "lon": -26.463694510383547, "alt_km": 380.8893504411535, "timestamp": "2025-12-05T16:54:13.485793+00:00", "meta": {"OBJECT_NAME": "STARLINK-35689", "OBJECT_ID": "2025-263K", "EPOCH": "2025-12-05T06:00:02.000160", "MEAN_MOTION": 15.63874941, "ECCENTRICITY": 0.00014539, "INCLINATION": 42.9989, "RA_OF_ASC_NODE": 169.1188, "ARG_OF_PERICENTER": 271.5902, "MEAN_ANOMALY": 211.9105, "EPHEMERIS_TYPE": 0, "CLASSIFICATION_TYPE": "U", "NORAD_CAT_ID": 66494, "ELEMENT_SET_NO": 999, "REV_AT_EPOCH": 443, "BSTAR": -0.024235186, "MEAN_MOTION_DOT": -0.02050979, "MEAN_MOTION_DDOT": 0}, "tle": {"line1": "1 66494U 25263K   25339.25002315 -.02050979  00000+0 -24235-1 0  9997", "line2": "2 66494  42.9989 169.1188 0001453 271.5902 211.9105 15.63874941  4433"}}, "geometry": {"type": "Point", "coordinates": [-26.463694510383547, 11.729885305694884]}}, {"type": "Feature", "properties": {"norad_id": 66495, "name": "STARLINK-35832", "group": "last-30-days", "lat": 6.581771133165425, "lon": -20.721467709814302, "alt_km": 381.4895267038337, "timestamp": "2025-12-05T16:54:13.485801+00:00", "meta": {"OBJECT_NAME": "STARLINK-35832", "OBJECT_ID": "2025-263L", "EPOCH": "2025-12-05T06:00:02.000160", "MEAN_MOTION": 15.6388256, "ECCENTRICITY": 0.00014452, "INCLINATION": 42.9992, "RA_OF_ASC_NODE": 169.0986, "ARG_OF_PERICENTER": 271.4998, "MEAN_ANOMALY": 219.666, "EPHEMERIS_TYPE": 0, "CLASSIFICATION_TYPE": "U", "NORAD_CAT_ID": 66495, "ELEMENT_SET_NO": 999, "REV_AT_EPOCH": 443, "BSTAR": -0.024363341, "MEAN_MOTION_DOT": -0.02060987, "MEAN_MOTION_DDOT": 0}, "tle": {"line1": "1 66495U 25263L   25339.25002315 -.02060987  00000+0 -24363-1 0  9990", "line2": "2 66495  42.9992 169.0986 0001445 271.4998 219.6660 15.63882560  4435"}}, "geometry": {"type": "Point", "coordinates": [-20.721467709814302, 6.581771133165425]}}, {"type": "Feature", "properties": {"norad_id": 66496, "name": "STARLINK-35909", "group": "last-30-days", "lat": 5.283199001970653, "lon": -19.308340583956568, "alt_km": 381.61502472535176, "timestamp": "2025-12-05T16:54:13.485810+00:00", "meta": {"OBJECT_NAME": "STARLINK-35909", "OBJECT_ID": "2025-263M", "EPOCH": "2025-12-05T06:00:02.000160", "MEAN_MOTION": 15.63874815, "ECCENTRICITY": 0.00014724, "INCLINATION": 42.9993, "RA_OF_ASC_NODE": 169.0941, "ARG_OF_PERICENTER": 270.5227, "MEAN_ANOMALY": 222.5671, "EPHEMERIS_TYPE": 0, "CLASSIFICATION_TYPE": "U", "NORAD_CAT_ID": 66496, "ELEMENT_SET_NO": 999, "REV_AT_EPOCH": 443, "BSTAR": -0.024289801, "MEAN_MOTION_DOT": -0.02055021, "MEAN_MOTION_DDOT": 0}, "tle": {"line1": "1 66496U 25263M   25339.25002315 -.02055021  00000+0 -24290-1 0  9993", "line2": "2 66496  42.9993 169.0941 0001472 270.5227 222.5671 15.63874815  4432"}}, "geometry": {"type": "Point", "coordinates": [-19.308340583956568, 5.283199001970653]}}, {"type": "Feature", "properties": {"norad_id": 66497, "name": "STARLINK-35899", "group": "last-30-days", "lat": 3.9811263135005004, "lon": -17.9019249550305, "alt_km": 381.73812229794385, "timestamp": "2025-12-05T16:54:13.485821+00:00", "meta": {"OBJECT_NAME": "STARLINK-35899", "OBJECT_ID": "2025-263N", "EPOCH": "2025-12-05T06:00:02.000160", "MEAN_MOTION": 15.63878688, "ECCENTRICITY": 0.00014704, "INCLINATION": 42.9991, "RA_OF_ASC_NODE": 169.0886, "ARG_OF_PERICENTER": 270.1412, "MEAN_ANOMALY": 224.8606, "EPHEMERIS_TYPE": 0, "CLASSIFICATION_TYPE": "U", "NORAD_CAT_ID": 66497, "ELEMENT_SET_NO": 999, "REV_AT_EPOCH": 443, "BSTAR": -0.024308688, "MEAN_MOTION_DOT": -0.02056693, "MEAN_MOTION_DDOT": 0}, "tle": {"line1": "1 66497U 25263N   25339.25002315 -.02056693  00000+0 -24309-1 0  9991", "line2": "2 66497  42.9991 169.0886 0001470 270.1412 224.8606 15.63878688  4434"}}, "geometry": {"type": "Point", "coordinates": [-17.9019249550305, 3.9811263135005004]}}, {"type": "Feature", "properties": {"norad_id": 66498, "name": "STARLINK-35907", "group": "last-30-days", "lat": 2.6760441923594227, "lon": -16.498558681103603, "alt_km": 381.9011719998871, "timestamp": "2025-12-05T16:54:13.485830+00:00", "meta": {"OBJECT_NAME": "STARLINK-35907", "OBJECT_ID": "2025-263P", "EPOCH": "2025-12-05T06:00:02.000160", "MEAN_MOTION": 15.6387476, "ECCENTRICITY": 0.0001456, "INCLINATION": 42.999, "RA_OF_ASC_NODE": 169.0838, "ARG_OF_PERICENTER": 270.855, "MEAN_ANOMALY": 226.0703, "EPHEMERIS_TYPE": 0, "CLASSIFICATION_TYPE": "U", "NORAD_CAT_ID": 66498, "ELEMENT_SET_NO": 999, "REV_AT_EPOCH": 443, "BSTAR": -0.024305321, "MEAN_MOTION_DOT": -0.0205615, "MEAN_MOTION_DDOT": 0}, "tle": {"line1": "1 66498U 25263P   25339.25002315 -.02056150  00000+0 -24305-1 0  9996", "line2": "2 66498  42.9990 169.0838 0001456 270.8550 226.0703 15.63874760  4434"}}, "geometry": {"type": "Point", "coordinates": [-16.498558681103603, 2.6760441923594227]}}, {"type": "Feature", "properties": {"norad_id": 66499, "name": "STARLINK-35816", "group": "last-30-days", "lat": 0.06275481069965777, "lon": -13.70013244775076, "alt_km": 382.1463563707912, "timestamp": "2025-12-05T16:54:13.485839+00:00", "meta": {"OBJECT_NAME": "STARLINK-35816", "OBJECT_ID": "2025-263Q", "EPOCH": "2025-12-05T06:00:02.000160", "MEAN_MOTION": 15.63872021, "ECCENTRICITY": 0.000142, "INCLINATION": 42.9991, "RA_OF_ASC_NODE": 169.0744, "ARG_OF_PERICENTER": 270.9221, "MEAN_ANOMALY": 229.8341, "EPHEMERIS_TYPE": 0, "CLASSIFICATION_TYPE": "U", "NORAD_CAT_ID": 66499, "ELEMENT_SET_NO": 999, "REV_AT_EPOCH": 443, "BSTAR": -0.024194633, "MEAN_MOTION_DOT": -0.02047744, "MEAN_MOTION_DDOT": 0}, "tle": {"line1": "1 66499U 25263Q   25339.25002315 -.02047744  00000+0 -24195-1 0  9993", "line2": "2 66499  42.9991 169.0744 0001420 270.9221 229.8341 15.63872021  4436"}}, "geometry": {"type": "Point", "coordinates": [-13.70013244775076, 0.06275481069965777]}}]}